{
    "links": {
        "self": "http://www.neowsapp.com/rest/v1/neo/3781900?api_key=iIulBulltgU6a56xZRHN4H3l9WmuAYTsLGpBGhQ2"
    },
    "id": "3781900",
    "neo_reference_id": "3781900",
    "name": "(2017 SR16)",
    "designation": "2017 SR16",
    "nasa_jpl_url": "http://ssd.jpl.nasa.gov/sbdb.cgi?sstr=3781900",
    "absolute_magnitude_h": 24.4,
    "estimated_diameter": {
        "kilometers": {
            "estimated_diameter_min": 0.0350392641,
            "estimated_diameter_max": 0.0783501764
        },
        "meters": {
            "estimated_diameter_min": 35.0392641108,
            "estimated_diameter_max": 78.3501764334
        },
        "miles": {
            "estimated_diameter_min": 0.0217723826,
            "estimated_diameter_max": 0.0486845275
        },
        "feet": {
            "estimated_diameter_min": 114.9582192654,
            "estimated_diameter_max": 257.0543928497
        }
    },
    "is_potentially_hazardous_asteroid": false,
    "close_approach_data": [
        {
            "close_approach_date": "2017-09-25",
            "close_approach_date_full": "2017-Sep-25 04:25",
            "epoch_date_close_approach": 1506313500000,
            "relative_velocity": {
                "kilometers_per_second": "18.5543428125",
                "kilometers_per_hour": "66795.634124915",
                "miles_per_hour": "41504.2094372285"
            },
            "miss_distance": {
                "astronomical": "0.0248316063",
                "lunar": "9.6594948507",
                "kilometers": "3714755.411158581",
                "miles": "2308241.9778911778"
            },
            "orbiting_body": "Earth"
        }
    ],
    "orbital_data": {
        "orbit_id": "6",
        "orbit_determination_date": "2017-10-20 06:21:55",
        "first_observation_date": "2017-09-26",
        "last_observation_date": "2017-10-01",
        "data_arc_in_days": 5,
        "observations_used": 58,
        "orbit_uncertainty": "8",
        "minimum_orbit_intersection": ".0165207",
        "jupiter_tisserand_invariant": "4.541",
        "epoch_osculation": "2458024.5",
        "eccentricity": ".4490797606813167",
        "semi_major_axis": "1.402497898176313",
        "inclination": "26.40204714605417",
        "ascending_node_longitude": "4.212687361347864",
        "orbital_period": "606.6689327641288",
        "perihelion_distance": ".7726644777072448",
        "perihelion_argument": "281.872711662409",
        "aphelion_distance": "2.032331318645382",
        "perihelion_time": "2457968.008759825774",
        "mean_anomaly": "33.52214917296296",
        "mean_motion": ".5934043768481004",
        "equinox": "J2000",
        "orbit_class": {
            "orbit_class_type": "APO",
            "orbit_class_description": "Near-Earth asteroid orbits which cross the Earth’s orbit similar to that of 1862 Apollo",
            "orbit_class_range": "a (semi-major axis) > 1.0 AU; q (perihelion) < 1.017 AU"
        }
    },
    "is_sentry_object": false
}